STARLINK-4560           
1 53691U 22105AV  26068.67776497  .00000202  00000+0  18233-4 0  9993
2 53691  97.6028 311.1972 0002314  83.4484 276.7006 15.05644164193303
UMBRA-07                
1 58297U 23174AT  26068.71829358  .00012685  00000+0  84614-3 0  9990
2 58297  97.3902 128.3323 0004131  75.5473 284.6213 15.07174057128425
